IRIDIUM 159             
1 43578U 18061K   25026.12863461  .00000500  00000+0  17138-3 0  9996
2 43578  86.3945 268.5763 0001907  79.9901 280.1509 14.34212910340709
IRIDIUM 180             
1 43922U 19002A   25025.91883406  .00000228  00000+0  74345-4 0  9993
2 43922  86.3977 205.5535 0001934  94.1387 266.0030 14.34221213316321
IRIDIUM 176             
1 43923U 19002B   25025.91606631  .00000886  00000+0  13655-3 0  9993
2 43923  86.6105 205.5587 0001211  66.5027 293.6317 14.72255501324611
IRIDIUM 168             
1 43924U 19002C   25025.91248617 -.00000028  00000+0 -16975-4 0  9999
2 43924  86.3983 205.6193 0001797  88.1653 271.9749 14.34217393316266
IRIDIUM 173             
1 43925U 19002D   25026.03933749  .00000003  00000+0 -60324-5 0  9991
2 43925  86.3981 205.4760 0001852  95.3343 264.8064 14.34217881316275
IRIDIUM 169             
1 43926U 19002E   25026.12109678  .00000921  00000+0  29461-3 0  9991
2 43926  86.4199 237.0440 0001989 132.4928 227.6438 14.38601275317324
IRIDIUM 172             
1 43927U 19002F   25026.03299341  .00000117  00000+0  34859-4 0  9994
2 43927  86.3977 205.4851 0001927  88.7460 271.3956 14.34218686316279
IRIDIUM 175             
1 43928U 19002G   25025.91070307  .00002559  00000+0  40185-3 0  9990
2 43928  86.1542 166.1849 0003100 107.1447 253.0109 14.72248113324605
